OBJECT_NAME,OBJECT_ID,EPOCH,MEAN_MOTION,ECCENTRICITY,INCLINATION,RA_OF_ASC_NODE,ARG_OF_PERICENTER,MEAN_ANOMALY,EPHEMERIS_TYPE,CLASSIFICATION_TYPE,NORAD_CAT_ID,ELEMENT_SET_NO,REV_AT_EPOCH,BSTAR,MEAN_MOTION_DOT,MEAN_MOTION_DDOT
STARLINK-3838,2022-045X,2026-06-04T06:15:52.077024,15.08832300,.00012634,53.1797,170.4644,71.4106,288.7023,0,U,52352,999,22885,.17716472E-4,-.6E-7,0
STARLINK-3807,2022-045Y,2026-06-04T06:26:27.536928,15.08844941,.0001188,53.1781,170.4205,67.5190,292.5928,0,U,52353,999,22885,-.18114388E-3,-.317E-4,0
STARLINK-3877,2022-045AA,2026-06-04T06:21:09.772416,15.08836959,.00011799,53.1773,170.4381,75.3779,284.7344,0,U,52355,999,22885,-.42497505E-4,-.964E-5,0
STARLINK-3801,2022-045AB,2026-06-04T04:29:49.867872,15.08890985,.00015967,53.1806,170.8279,149.5279,210.5806,0,U,52356,999,22884,.20365957E-3,.2959E-4,0
STARLINK-3821,2022-045AC,2026-06-04T06:10:34.045536,15.08834694,.00012283,53.1806,170.4948,87.0368,273.0764,0,U,52357,999,22885,.19731159E-4,.26E-6,0
STARLINK-3837,2022-045AD,2026-06-04T05:44:04.611264,15.08833566,.00016578,53.1795,170.5570,42.0145,318.0974,0,U,52358,999,22885,-.51134081E-4,-.1102E-4,0
STARLINK-3853,2022-045AE,2026-06-04T06:06:38.918304,15.08834340,.00012394,53.1804,170.5150,73.3091,286.8037,0,U,52359,999,22885,.10992353E-4,-.113E-5,0
STARLINK-3728,2022-045AG,2026-06-04T05:54:40.026240,15.08839950,.0000996,53.1804,170.5376,85.4892,274.6213,0,U,52361,999,22885,.50954878E-4,.523E-5,0
STARLINK-3848,2022-045AH,2026-06-04T05:29:29.918400,15.08834994,.00016511,53.1798,160.6131,51.5506,308.5633,0,U,52362,999,22898,.29371701E-4,.179E-5,0
STARLINK-3830,2022-045AJ,2026-06-04T05:49:22.379232,15.08832860,.00014351,53.1798,170.5437,57.8794,302.2337,0,U,52363,999,22885,-.34420773E-4,-.836E-5,0
STARLINK-3820,2022-045AK,2026-06-04T22:00:05.000256,15.08818789,.00012811,53.1746,157.4293,86.6958,132.1164,0,U,52364,999,583,.21496539E-2,.3407E-3,0
STARLINK-3874,2022-045AL,2026-06-04T05:40:05.797344,15.08837474,.00013913,53.1807,160.5781,88.1319,271.9832,0,U,52365,999,22898,-.23987981E-4,-.67E-5,0
STARLINK-3808,2022-045AM,2026-06-04T22:00:05.000256,15.08817842,.00013212,53.1747,157.5172,87.8979,110.8280,0,U,52366,999,583,.23766865E-2,.37718E-3,0
STARLINK-3817,2022-045AN,2026-06-04T05:24:11.950848,15.08839448,.00010522,53.1810,160.6323,85.2138,274.8974,0,U,52367,999,22898,-.36810756E-4,-.874E-5,0
STARLINK-3834,2022-045AP,2026-06-04T04:57:42.843168,15.08812141,.00010346,53.1833,160.6976,99.1282,260.9827,0,U,52368,999,22897,.33684919E-3,.5073E-4,0
STARLINK-3841,2022-045AQ,2026-06-04T05:18:54.103392,15.08835589,.00011203,53.1815,160.6470,70.3796,289.7317,0,U,52369,999,22898,.46902062E-4,.459E-5,0
STARLINK-3827,2022-045AR,2026-06-04T03:34:17.681664,15.08837864,.00012783,53.1835,160.9715,56.8580,303.2535,0,U,52370,999,22897,.7131518E-5,-.174E-5,0
STARLINK-3798,2022-045AS,2026-06-04T05:04:22.971936,15.08840291,.00024138,53.1830,160.6746,28.4262,331.6861,0,U,52371,999,22897,-.8450006E-5,-.423E-5,0
STARLINK-3796,2022-045AT,2026-06-04T14:24:42.725664,15.08844945,.00011421,53.1817,158.9243,101.2334,258.8786,0,U,52372,999,22903,-.58831225E-4,-.1224E-4,0
STARLINK-3550,2022-045AU,2026-06-04T06:11:53.577600,15.08836207,.00012979,53.1805,160.4732,78.8959,281.2178,0,U,52373,999,22899,.75844276E-4,.919E-5,0
STARLINK-3762,2022-045AV,2026-06-04T06:17:11.570208,15.08836888,.00015303,53.1810,160.4422,47.5282,312.5839,0,U,52374,999,22899,.14479826E-4,-.58E-6,0
STARLINK-3785,2022-045AW,2026-06-04T06:22:29.186976,15.08838783,.00023983,53.1809,160.4261,30.3231,329.7899,0,U,52375,999,22899,.35486209E-4,.276E-5,0
STARLINK-3805,2022-045AY,2026-06-04T05:03:01.201248,15.08850996,.00028944,53.1820,160.8798,23.9491,336.1635,0,U,52377,999,22897,.12483992E-3,.1699E-4,0
STARLINK-3806,2022-045AZ,2026-06-04T05:55:58.689120,15.08841223,.00015838,53.1821,160.5337,118.3980,241.7172,0,U,52378,999,22899,-.973851E-6,-.304E-5,0
STARLINK-3800,2022-045BA,2026-06-04T13:58:15.479040,15.08828303,.00012226,53.1793,159.0165,53.8393,306.2711,0,U,52379,999,22904,.44416501E-4,.419E-5,0
STARLINK-3793,2022-045BB,2026-06-04T05:30:49.754592,15.08836631,.0001406,53.1802,150.6269,110.6352,249.4791,0,U,52380,999,22912,.621846E-6,-.278E-5,0
STARLINK-3799,2022-045BD,2026-06-04T22:00:05.000256,15.28415077,.000135,53.2148,152.8444,48.9704,299.3591,0,U,52382,999,588,.35631654E-2,.100904E-2,0
STARLINK-3811,2022-045BE,2026-06-04T04:43:08.026752,15.08839692,.00011447,53.1809,150.7990,100.8805,259.2316,0,U,52383,999,22912,.25283361E-4,.115E-5,0
BRO-6,2022-047AE,2026-06-04T22:29:37.808160,15.49688842,.00058123,97.3399,246.7653,117.2460,242.9384,0,U,52422,999,22925,.66399351E-3,.36853E-3,0
JILIN-1 KUANFU 01C,2022-048A,2026-06-04T21:30:39.497472,15.09399454,.00183098,97.5256,233.3028,7.4895,352.6604,0,U,52443,999,22534,.26092734E-3,.4122E-4,0
