STARLINK-3838           
1 52352U 22045X   26155.26101941 -.00000006  00000+0  17716-4 0  9995
2 52352  53.1797 170.4644 0001263  71.4106 288.7023 15.08832300228853
STARLINK-3807           
1 52353U 22045Y   26155.26837427 -.00003170  00000+0 -18114-3 0  9999
2 52353  53.1781 170.4205 0001188  67.5190 292.5928 15.08844941228856
STARLINK-3877           
1 52355U 22045AA  26155.26469644 -.00000964  00000+0 -42498-4 0  9994
2 52355  53.1773 170.4381 0001179  75.3779 284.7344 15.08836959228859
STARLINK-3801           
1 52356U 22045AB  26155.18738273  .00002959  00000+0  20366-3 0  9996
2 52356  53.1806 170.8279 0001596 149.5279 210.5806 15.08890985228847
STARLINK-3821           
1 52357U 22045AC  26155.25733849  .00000026  00000+0  19731-4 0  9997
2 52357  53.1806 170.4948 0001228  87.0368 273.0764 15.08834694228857
STARLINK-3837           
1 52358U 22045AD  26155.23894226 -.00001102  00000+0 -51134-4 0  9994
2 52358  53.1795 170.5570 0001657  42.0145 318.0974 15.08833566228857
STARLINK-3853           
1 52359U 22045AE  26155.25461711 -.00000113  00000+0  10992-4 0  9993
2 52359  53.1804 170.5150 0001239  73.3091 286.8037 15.08834340228859
STARLINK-3728           
1 52361U 22045AG  26155.24629660  .00000523  00000+0  50955-4 0  9991
2 52361  53.1804 170.5376 0000996  85.4892 274.6213 15.08839950228857
STARLINK-3848           
1 52362U 22045AH  26155.22881850  .00000179  00000+0  29372-4 0  9997
2 52362  53.1798 160.6131 0001651  51.5506 308.5633 15.08834994228984
STARLINK-3830           
1 52363U 22045AJ  26155.24262013 -.00000836  00000+0 -34421-4 0  9997
2 52363  53.1798 170.5437 0001435  57.8794 302.2337 15.08832860228850
STARLINK-3820           
1 52364U 22045AK  26155.91672454  .00034070  00000+0  21497-2 0  9998
2 52364  53.1746 157.4293 0001281  86.6958 132.1164 15.08818789  5832
STARLINK-3874           
1 52365U 22045AL  26155.23617821 -.00000670  00000+0 -23988-4 0  9991
2 52365  53.1807 160.5781 0001391  88.1319 271.9832 15.08837474228987
STARLINK-3808           
1 52366U 22045AM  26155.91672454  .00037718  00000+0  23767-2 0  9994
2 52366  53.1747 157.5172 0001321  87.8979 110.8280 15.08817842  5834
STARLINK-3817           
1 52367U 22045AN  26155.22513832 -.00000874  00000+0 -36811-4 0  9994
2 52367  53.1810 160.6323 0001052  85.2138 274.8974 15.08839448228989
STARLINK-3834           
1 52368U 22045AP  26155.20674587  .00005073  00000+0  33685-3 0  9997
2 52368  53.1833 160.6976 0001034  99.1282 260.9827 15.08812141228976
STARLINK-3841           
1 52369U 22045AQ  26155.22145953  .00000459  00000+0  46902-4 0  9990
2 52369  53.1815 160.6470 0001120  70.3796 289.7317 15.08835589228988
STARLINK-3827           
1 52370U 22045AR  26155.14881576 -.00000174  00000+0  71315-5 0  9993
2 52370  53.1835 160.9715 0001278  56.8580 303.2535 15.08837864228972
STARLINK-3798           
1 52371U 22045AS  26155.21137699 -.00000423  00000+0 -84500-5 0  9990
2 52371  53.1830 160.6746 0002413  28.4262 331.6861 15.08840291228978
STARLINK-3796           
1 52372U 22045AT  26155.60049451 -.00001224  00000+0 -58831-4 0  9999
2 52372  53.1817 158.9243 0001142 101.2334 258.8786 15.08844945229038
STARLINK-3550           
1 52373U 22045AU  26155.25825900  .00000919  00000+0  75844-4 0  9993
2 52373  53.1805 160.4732 0001297  78.8959 281.2178 15.08836207228991
STARLINK-3762           
1 52374U 22045AV  26155.26193947 -.00000058  00000+0  14480-4 0  9998
2 52374  53.1810 160.4422 0001530  47.5282 312.5839 15.08836888228993
STARLINK-3785           
1 52375U 22045AW  26155.26561559  .00000276  00000+0  35486-4 0  9997
2 52375  53.1809 160.4261 0002398  30.3231 329.7899 15.08838783228992
STARLINK-3805           
1 52377U 22045AY  26155.21043057  .00001699  00000+0  12484-3 0  9994
2 52377  53.1820 160.8798 0002894  23.9491 336.1635 15.08850996228971
STARLINK-3806           
1 52378U 22045AZ  26155.24720705 -.00000304  00000+0 -97385-6 0  9990
2 52378  53.1821 160.5337 0001583 118.3980 241.7172 15.08841223228997
STARLINK-3800           
1 52379U 22045BA  26155.58212360  .00000419  00000+0  44417-4 0  9992
2 52379  53.1793 159.0165 0001222  53.8393 306.2711 15.08828303229046
STARLINK-3793           
1 52380U 22045BB  26155.22974253 -.00000278  00000+0  62185-6 0  9999
2 52380  53.1802 150.6269 0001406 110.6352 249.4791 15.08836631229120
STARLINK-3799           
1 52382U 22045BD  26155.91672454  .00100904  00000+0  35632-2 0  9994
2 52382  53.2148 152.8444 0001350  48.9704 299.3591 15.28415077  5883
STARLINK-3811           
1 52383U 22045BE  26155.19662068  .00000115  00000+0  25283-4 0  9991
2 52383  53.1809 150.7990 0001144 100.8805 259.2316 15.08839692229127
BRO-6                   
1 52422U 22047AE  26155.93724315  .00036853  00000+0  66399-3 0  9993
2 52422  97.3399 246.7653 0005812 117.2460 242.9384 15.49688842229254
JILIN-1 KUANFU 01C      
1 52443U 22048A   26155.89629048  .00004122  00000+0  26093-3 0  9990
2 52443  97.5256 233.3028 0018309   7.4895 352.6604 15.09399454225340
